ONEWEB-0410             
1 51622U 22012A   26176.94994133  .00000036  00000+0  60685-4 0  9994
2 51622  87.9143   4.1143 0002779  64.8921 295.2498 13.17649101214850
ONEWEB-0411             
1 51623U 22012B   26177.09988445  .00002370  00000+0  67528-2 0  9995
2 51623  87.8836  34.4916 0001762 103.8944 256.2380 13.10359895210453
ONEWEB-0415             
1 51624U 22012C   26177.09649047  .00002689  00000+0  76677-2 0  9996
2 51624  87.8829  34.4914 0001979  91.9096 268.2258 13.10357654210457
ONEWEB-0416             
1 51625U 22012D   26177.10837778  .00002872  00000+0  81899-2 0  9995
2 51625  87.8836  34.5064 0002365  89.9000 270.2399 13.10358721210494
ONEWEB-0422             
1 51626U 22012E   26176.58038654  .00000072  00000+0  15214-3 0  9992
2 51626  87.9141   4.1889 0001293 101.0701 259.0576 13.17649693214917
ONEWEB-0423             
1 51627U 22012F   26177.25705224  .00000044  00000+0  79133-4 0  9992
2 51627  87.9134   4.0594 0001857  86.0353 274.0991 13.17650514214892
ONEWEB-0425             
1 51628U 22012G   26177.11855343  .00003870  00000+0  11047-1 0  9993
2 51628  87.8827  34.4880 0001952  75.5372 284.5972 13.10354628210493
ONEWEB-0428             
1 51629U 22012H   26177.09819074  .00002915  00000+0  83140-2 0  9995
2 51629  87.8823  34.4991 0001739  84.5241 275.6085 13.10357046210450
ONEWEB-0431             
1 51630U 22012J   26177.14384736 -.00003860  00000+0 -11096-1 0  9997
2 51630  87.8822  34.4816 0001823 106.5969 253.5359 13.10394606210512
ONEWEB-0434             
1 51631U 22012K   26176.96935169  .00003631  00000+0  10364-1 0  9990
2 51631  87.8832  34.5431 0002048  65.8569 294.2772 13.10351387210476
ONEWEB-0435             
1 51632U 22012L   26177.12870987 -.00005537  00000+0 -15899-1 0  9993
2 51632  87.8823  34.4959 0001052 100.2755 259.8491 13.10407444210488
ONEWEB-0436             
1 51633U 22012M   26177.24861722  .00000072  00000+0  15321-3 0  9993
2 51633  87.9138   4.0432 0001711  94.7586 265.3741 13.17650008214879
ONEWEB-0438             
1 51634U 22012N   26177.11346689  .00003316  00000+0  94622-2 0  9994
2 51634  87.8829  34.5030 0001901  80.4018 279.7324 13.10360889210512
ONEWEB-0439             
1 51635U 22012P   26177.11686214  .00004170  00000+0  11908-1 0  9990
2 51635  87.8827  34.4902 0001745  81.7045 278.4280 13.10356469210491
ONEWEB-0442             
1 51636U 22012Q   26177.24104672 -.00000792  00000+0 -20740-2 0  9991
2 51636  87.9129   4.0770 0002177  77.7995 282.3380 13.17641273214860
ONEWEB-0443             
1 51637U 22012R   26177.26042269  .00000033  00000+0  51320-4 0  9993
2 51637  87.9128   4.0740 0001647  80.5944 279.5374 13.17650034214916
ONEWEB-0444             
1 51638U 22012S   26177.10667463  .00002907  00000+0  82905-2 0  9999
2 51638  87.8824  34.4899 0001564  78.6940 281.4363 13.10359962210503
ONEWEB-0445             
1 51639U 22012T   26176.97430002 -.00003395  00000+0 -97620-2 0  9995
2 51639  87.8839  34.5049 0002089  88.6801 271.4565 13.10393820210490
ONEWEB-0446             
1 51640U 22012U   26177.10497885  .00004280  00000+0  12222-1 0  9991
2 51640  87.8827  34.5079 0002052  86.8695 273.2667 13.10359012210491
ONEWEB-0448             
1 51641U 22012V   26177.11005611 -.00000082  00000+0 -27020-3 0  9997
2 51641  87.8824  34.5029 0001735  82.4167 277.7158 13.10362579210460
ONEWEB-0449             
1 51642U 22012W   26177.11517014  .00003627  00000+0  10352-1 0  9997
2 51642  87.8833  34.4880 0002267  73.2967 286.8409 13.10351127210470
ONEWEB-0451             
1 51643U 22012X   26177.24525361 -.00000004  00000+0 -44418-4 0  9997
2 51643  87.9142   4.0417 0001922  82.7637 277.3713 13.17649412214853
ONEWEB-0452             
1 51644U 22012Y   26177.24355355  .00000103  00000+0  23163-3 0  9993
2 51644  87.9130   4.0779 0001740  80.1361 279.9967 13.17649752214863
ONEWEB-0456             
1 51646U 22012AA  26176.97089514 -.00004793  00000+0 -13769-1 0  9995
2 51646  87.8841  34.5041 0001388  84.1408 275.9877 13.10400677210492
ONEWEB-0457             
1 51647U 22012AB  26177.10145137  .00002340  00000+0  66677-2 0  9997
2 51647  87.8826  34.4959 0002180  85.1842 274.9534 13.10354515210518
ONEWEB-0458             
1 51648U 22012AC  26176.97007912  .00000419  00000+0  11650-2 0  9996
2 51648  87.8832  34.5100 0001759  77.7959 282.3366 13.10374373210455
ONEWEB-0461             
1 51649U 22012AD  26177.26549708  .00000023  00000+0  26801-4 0  9991
2 51649  87.9140   4.0513 0002002  90.2591 269.8770 13.17649097215081
ONEWEB-0463             
1 51650U 22012AE  26177.24694079  .00000039  00000+0  66993-4 0  9996
2 51650  87.9130   4.0768 0002015  90.5865 269.5497 13.17649347214861
ONEWEB-0464             
1 51651U 22012AF  26177.12024681  .00004363  00000+0  12459-1 0  9999
2 51651  87.8828  34.5016 0001509  81.3895 278.7403 13.10354034210490
ONEWEB-0468             
1 51652U 22012AG  26176.97259458 -.00004550  00000+0 -13070-1 0  9994
2 51652  87.8824  34.5239 0001454  83.8561 276.2732 13.10403588210453
