OBJECT_NAME,OBJECT_ID,EPOCH,MEAN_MOTION,ECCENTRICITY,INCLINATION,RA_OF_ASC_NODE,ARG_OF_PERICENTER,MEAN_ANOMALY,EPHEMERIS_TYPE,CLASSIFICATION_TYPE,NORAD_CAT_ID,ELEMENT_SET_NO,REV_AT_EPOCH,BSTAR,MEAN_MOTION_DOT,MEAN_MOTION_DDOT
ONEWEB-0410,2022-012A,2026-06-25T22:47:54.930912,13.17649101,.0002779,87.9143,4.1143,64.8921,295.2498,0,U,51622,999,21485,.60685239E-4,.36E-6,0
ONEWEB-0411,2022-012B,2026-06-26T02:23:50.016480,13.10359895,.00017621,87.8836,34.4916,103.8944,256.2380,0,U,51623,999,21045,.67527804E-2,.237E-4,0
ONEWEB-0415,2022-012C,2026-06-26T02:18:56.776608,13.10357654,.0001979,87.8829,34.4914,91.9096,268.2258,0,U,51624,999,21045,.76676977E-2,.2689E-4,0
ONEWEB-0416,2022-012D,2026-06-26T02:36:03.840192,13.10358721,.00023651,87.8836,34.5064,89.9000,270.2399,0,U,51625,999,21049,.81899082E-2,.2872E-4,0
ONEWEB-0422,2022-012E,2026-06-25T13:55:45.397056,13.17649693,.00012936,87.9141,4.1889,101.0701,259.0576,0,U,51626,999,21491,.15214361E-3,.72E-6,0
ONEWEB-0423,2022-012F,2026-06-26T06:10:09.313536,13.17650514,.00018579,87.9134,4.0594,86.0353,274.0991,0,U,51627,999,21489,.79132559E-4,.44E-6,0
ONEWEB-0425,2022-012G,2026-06-26T02:50:43.016352,13.10354628,.00019521,87.8827,34.4880,75.5372,284.5972,0,U,51628,999,21049,.11047411E-1,.387E-4,0
ONEWEB-0428,2022-012H,2026-06-26T02:21:23.679936,13.10357046,.00017395,87.8823,34.4991,84.5241,275.6085,0,U,51629,999,21045,.8314017E-2,.2915E-4,0
ONEWEB-0431,2022-012J,2026-06-26T03:27:08.411904,13.10394606,.00018233,87.8822,34.4816,106.5969,253.5359,0,U,51630,999,21051,-.11095729E-1,-.386E-4,0
ONEWEB-0434,2022-012K,2026-06-25T23:15:51.986016,13.10351387,.00020482,87.8832,34.5431,65.8569,294.2772,0,U,51631,999,21047,.1036354E-1,.3631E-4,0
ONEWEB-0435,2022-012L,2026-06-26T03:05:20.532768,13.10407444,.00010522,87.8823,34.4959,100.2755,259.8491,0,U,51632,999,21048,-.1589904E-1,-.5537E-4,0
ONEWEB-0436,2022-012M,2026-06-26T05:58:00.527808,13.17650008,.00017119,87.9138,4.0432,94.7586,265.3741,0,U,51633,999,21487,.15321465E-3,.72E-6,0
ONEWEB-0438,2022-012N,2026-06-26T02:43:23.539296,13.10360889,.00019018,87.8829,34.5030,80.4018,279.7324,0,U,51634,999,21051,.94622162E-2,.3316E-4,0
ONEWEB-0439,2022-012P,2026-06-26T02:48:16.888896,13.10356469,.00017456,87.8827,34.4902,81.7045,278.4280,0,U,51635,999,21049,.11908377E-1,.417E-4,0
ONEWEB-0442,2022-012Q,2026-06-26T05:47:06.436608,13.17641273,.00021776,87.9129,4.0770,77.7995,282.3380,0,U,51636,999,21486,-.20739909E-2,-.792E-5,0
ONEWEB-0443,2022-012R,2026-06-26T06:15:00.520416,13.17650034,.00016477,87.9128,4.0740,80.5944,279.5374,0,U,51637,999,21491,.51320371E-4,.33E-6,0
ONEWEB-0444,2022-012S,2026-06-26T02:33:36.688032,13.10359962,.00015642,87.8824,34.4899,78.6940,281.4363,0,U,51638,999,21050,.82904509E-2,.2907E-4,0
ONEWEB-0445,2022-012T,2026-06-25T23:22:59.521728,13.10393820,.00020895,87.8839,34.5049,88.6801,271.4565,0,U,51639,999,21049,-.9762033E-2,-.3395E-4,0
ONEWEB-0446,2022-012U,2026-06-26T02:31:10.172640,13.10359012,.00020529,87.8827,34.5079,86.8695,273.2667,0,U,51640,999,21049,.12221838E-1,.428E-4,0
ONEWEB-0448,2022-012V,2026-06-26T02:38:28.847904,13.10362579,.00017354,87.8824,34.5029,82.4167,277.7158,0,U,51641,999,21046,-.27020315E-3,-.82E-6,0
ONEWEB-0449,2022-012W,2026-06-26T02:45:50.700096,13.10351127,.00022676,87.8833,34.4880,73.2967,286.8409,0,U,51642,999,21047,.10352275E-1,.3627E-4,0
ONEWEB-0451,2022-012X,2026-06-26T05:53:09.911904,13.17649412,.00019222,87.9142,4.0417,82.7637,277.3713,0,U,51643,999,21485,-.44418346E-4,-.4E-7,0
ONEWEB-0452,2022-012Y,2026-06-26T05:50:43.026720,13.17649752,.00017404,87.9130,4.0779,80.1361,279.9967,0,U,51644,999,21486,.2316345E-3,.103E-5,0
ONEWEB-0456,2022-012AA,2026-06-25T23:18:05.340096,13.10400677,.00013886,87.8841,34.5041,84.1408,275.9877,0,U,51646,999,21049,-.13768615E-1,-.4793E-4,0
ONEWEB-0457,2022-012AB,2026-06-26T02:26:05.398368,13.10354515,.00021809,87.8826,34.4959,85.1842,274.9534,0,U,51647,999,21051,.66676643E-2,.234E-4,0
ONEWEB-0458,2022-012AC,2026-06-25T23:16:54.835968,13.10374373,.00017599,87.8832,34.5100,77.7959,282.3366,0,U,51648,999,21045,.11650408E-2,.419E-5,0
ONEWEB-0461,2022-012AD,2026-06-26T06:22:18.947712,13.17649097,.00020022,87.9140,4.0513,90.2591,269.8770,0,U,51649,999,21508,.26801026E-4,.23E-6,0
ONEWEB-0463,2022-012AE,2026-06-26T05:55:35.684256,13.17649347,.00020151,87.9130,4.0768,90.5865,269.5497,0,U,51650,999,21486,.6699254E-4,.39E-6,0
ONEWEB-0464,2022-012AF,2026-06-26T02:53:09.324384,13.10354034,.00015091,87.8828,34.5016,81.3895,278.7403,0,U,51651,999,21049,.12458951E-1,.4363E-4,0
ONEWEB-0468,2022-012AG,2026-06-25T23:20:32.171712,13.10403588,.00014544,87.8824,34.5239,83.8561,276.2732,0,U,51652,999,21045,-.13070493E-1,-.455E-4,0
